      2.10          N: GNSS NAV DATA                        RINEX VERSION / TYPE
fic2rin                                 09/06/2024 00:59:02 PGM / RUN BY / DATE
                                                            END OF HEADER
7  24  9  5  1 59 44.0 -.418927520514D-04  .488853402203D-11  .000000000000D+00
     .200000000000D+01 -.137500000000D+01  .440661212451D-08 -.306173223506D+01
    -.344589352608D-06  .187193262391D-01  .129304826260D-04  .515362529373D+04
     .352784000000D+06  .176951289177D-06 -.287477306296D+01 -.298023223877D-06
     .950831145499D+00  .122125000000D+03 -.210245966457D+01 -.765531887476D-08
     .721458623076D-10  .100000000000D+01  .233000000000D+04  .000000000000D+00
     .240000000000D+01  .000000000000D+00 -.107102096081D-07  .200000000000D+01
     .345600000000D+06  .400000000000D+01
25 24  9  5  7 59 44.0  .499558635056D-03  .113686837722D-12  .000000000000D+00
     .410000000000D+02  .736562500000D+02  .514092842602D-08 -.754419320913D+00
     .409409403801D-05  .117227765732D-01  .582449138165D-05  .515373850822D+04
     .374384000000D+06  .167638063431D-07 -.184683235399D+01  .208616256714D-06
     .949519469743D+00  .266843750000D+03  .109162534093D+01 -.861143012920D-08
     .516807241382D-09  .100000000000D+01  .233000000000D+04  .000000000000D+00
     .240000000000D+01  .000000000000D+00  .558793544769D-08  .410000000000D+02
     .371880000000D+06  .400000000000D+01
1  24  9  5  7 59 44.0  .205431133509D-03 -.909494701773D-11  .000000000000D+00
     .400000000000D+01  .749375000000D+02  .617382859331D-08 -.191669288920D+01
     .376626849174D-05  .134136956185D-01  .539049506187D-05  .515360997391D+04
     .374384000000D+06  .234693288803D-06 -.181243860428D+01 -.912696123123D-07
     .953536613530D+00  .265500000000D+03  .103466988051D+01 -.819248410699D-08
     .606810990399D-09  .100000000000D+01  .233000000000D+04  .000000000000D+00
     .240000000000D+01  .630000000000D+02 -.195577740669D-07  .400000000000D+01
     .372930000000D+06  .400000000000D+01
1  24  9  5  9 59 44.0  .205365475267D-03 -.909494701773D-11  .000000000000D+00
     .870000000000D+02  .708125000000D+02  .621597320595D-08 -.866391860676D+00
     .397674739361D-05  .134139012080D-01  .548735260963D-05  .515361177254D+04
     .381584000000D+06  .689178705215D-07 -.181249795487D+01  .258907675743D-06
     .953539009790D+00  .271125000000D+03  .103459970725D+01 -.855821362681D-08
     .492520515456D-09  .100000000000D+01  .233000000000D+04  .000000000000D+00
     .240000000000D+01  .630000000000D+02 -.195577740669D-07  .870000000000D+02
     .374400000000D+06  .400000000000D+01
22 24  9  5  9 59 44.0 -.587389804423D-04 -.386535248253D-11  .000000000000D+00
     .700000000000D+01  .689375000000D+02  .470019578202D-08 -.182298737886D+01
     .394694507122D-05  .141456475249D-01  .571459531784D-05  .515369102097D+04
     .381584000000D+06 -.182539224625D-06 -.173808841152D+01  .305473804474D-06
     .960206574927D+00  .272250000000D+03 -.111866717828D+01 -.823212861549D-08
     .490377569051D-09  .100000000000D+01  .233000000000D+04  .000000000000D+00
     .240000000000D+01  .000000000000D+00 -.111758708954D-07  .700000000000D+01
     .374400000000D+06  .400000000000D+01
12 24  9  5  9 59 44.0 -.535752624273D-03 -.284217094304D-11  .000000000000D+00
     .109000000000D+03  .650000000000D+02  .473698302864D-08  .412739848089D+00
     .315532088280D-05  .867851125076D-02  .548176467419D-05  .515359905815D+04
     .381584000000D+06 -.115483999252D-06 -.175914057803D+01  .000000000000D+00
     .961452812895D+00  .273500000000D+03  .146132223606D+01 -.844785188694D-08
     .404302555110D-09  .100000000000D+01  .233000000000D+04  .000000000000D+00
     .240000000000D+01  .000000000000D+00 -.125728547573D-07  .109000000000D+03
     .374400000000D+06  .400000000000D+01
25 24  9  5  9 59 44.0  .499559566379D-03  .113686837722D-12  .000000000000D+00
     .420000000000D+02  .740000000000D+02  .499842249007D-08  .295710987995D+00
     .367686152458D-05  .117229726166D-01  .589713454247D-05  .515373882103D+04
     .381584000000D+06 -.167638063431D-06 -.184689383312D+01  .156462192535D-06
     .949523110946D+00  .263593750000D+03  .109164029195D+01 -.856392815055D-08
     .419303179946D-09  .100000000000D+01  .233000000000D+04  .000000000000D+00
     .240000000000D+01  .000000000000D+00  .558793544769D-08  .420000000000D+02
     .374400000000D+06  .400000000000D+01
14 24  9  5  9 59 44.0  .488597899675D-03  .864019966684D-11  .000000000000D+00
     .229000000000D+03  .661250000000D+02  .509806949791D-08  .302388209854D+00
     .351853668690D-05  .484204548411D-02  .591948628426D-05  .515369560814D+04
     .381584000000D+06  .502914190292D-07 -.180520249944D+01  .502914190292D-07
     .944813462702D+00  .257906250000D+03 -.285574523860D+01 -.848035324075D-08
     .491449042254D-09  .100000000000D+01  .233000000000D+04  .000000000000D+00
     .240000000000D+01  .000000000000D+00 -.791624188423D-08  .741000000000D+03
     .374400000000D+06  .400000000000D+01
2  24  9  5 10  0  0.0 -.364483334124D-03  .784439180279D-11  .000000000000D+00
     .120000000000D+02 -.181562500000D+02  .420196074282D-08 -.214557777348D+01
    -.653788447380D-06  .160944828531D-01  .122245401144D-04  .515369382286D+04
     .381600000000D+06  .149011611938D-07  .181903837779D+00  .327825546265D-06
     .967368827275D+00  .143500000000D+03 -.113684167667D+01 -.760567394971D-08
    -.133219834855D-09  .100000000000D+01  .233000000000D+04  .000000000000D+00
     .240000000000D+01  .000000000000D+00 -.176951289177D-07  .120000000000D+02
     .374400000000D+06  .400000000000D+01
5  24  9  5 10  0  0.0 -.185570679605D-03 -.125055521494D-11  .000000000000D+00
     .100000000000D+02  .639375000000D+02  .436911056242D-08 -.199289514209D+01
     .336952507496D-05  .590120209381D-02  .631064176559D-05  .515366648102D+04
     .381600000000D+06  .558793544769D-07  .126546839330D+01  .465661287308D-07
     .972522108352D+00  .264968750000D+03  .132273171313D+01 -.800961934708D-08
     .311441544219D-09  .100000000000D+01  .233000000000D+04  .000000000000D+00
     .240000000000D+01  .000000000000D+00 -.107102096081D-07  .100000000000D+02
     .374400000000D+06  .400000000000D+01
10 24  9  5 10  0  0.0 -.115462578833D-03 -.119371179608D-10  .000000000000D+00
     .800000000000D+01  .599687500000D+02  .429553606918D-08 -.339011552049D+00
     .303983688354D-05  .960394891445D-02  .573880970478D-05  .515368193054D+04
     .381600000000D+06  .111758708954D-07  .131559326246D+01  .122934579849D-06
     .985221153067D+00  .280031250000D+03 -.238007950101D+01 -.820248452355D-08
     .231438211759D-09  .100000000000D+01  .233000000000D+04  .000000000000D+00
     .240000000000D+01  .000000000000D+00  .232830643654D-08  .800000000000D+01
     .374400000000D+06  .400000000000D+01
6  24  9  5 10  0  0.0  .517787411809D-04 -.255795384874D-10  .000000000000D+00
     .110000000000D+02 -.173437500000D+02  .378372903607D-08  .205376057585D+01
    -.700354576111D-06  .300299667288D-02  .116322189569D-04  .515369051933D+04
     .381600000000D+06  .856816768646D-07  .282374510375D+00 -.335276126862D-07
     .989916739743D+00  .168312500000D+03 -.748295406856D+00 -.756531512574D-08
    -.131791203918D-09  .100000000000D+01  .233000000000D+04  .000000000000D+00
     .240000000000D+01  .000000000000D+00  .372529029846D-08  .110000000000D+02
     .374400000000D+06  .400000000000D+01
3  24  9  5 10  0  0.0  .526651274413D-03  .137561073643D-10  .000000000000D+00
     .130000000000D+02  .591875000000D+02  .422267589140D-08  .581271169260D+00
     .313110649586D-05  .572486408055D-02  .654160976410D-05  .515366258430D+04
     .381600000000D+06 -.260770320892D-07  .131814180766D+01  .428408384323D-07
     .985574697942D+00  .265875000000D+03  .115666349981D+01 -.807819363205D-08
     .287511976028D-09  .100000000000D+01  .233000000000D+04  .000000000000D+00
     .240000000000D+01  .000000000000D+00  .139698386192D-08  .130000000000D+02
     .374400000000D+06  .400000000000D+01
8  24  9  5 10  0  0.0  .341693405062D-03  .134150468512D-10  .000000000000D+00
     .900000000000D+01 -.539687500000D+02  .516342936327D-08 -.230717095843D+01
    -.303611159325D-05  .962127139792D-02  .463984906673D-05  .515367343140D+04
     .381600000000D+06  .130385160446D-07 -.816364569615D+00 -.186264514923D-06
     .951445999728D+00  .287281250000D+03  .368088804376D+00 -.843642283945D-08
    -.173578658819D-09  .100000000000D+01  .233000000000D+04  .000000000000D+00
     .240000000000D+01  .000000000000D+00  .465661287308D-08  .900000000000D+01
     .374400000000D+06  .400000000000D+01
7  24  9  5 10  0  0.0 -.417521223426D-04  .488853402203D-11  .000000000000D+00
     .240000000000D+02 -.257812500000D+02  .439482591928D-08  .114127567311D+01
    -.121071934700D-05  .187227623537D-01  .125728547573D-04  .515362370872D+04
     .381600000000D+06 -.311061739922D-06 -.287500186188D+01 -.149011611938D-07
     .950831171832D+00  .137156250000D+03 -.210228303769D+01 -.819212694926D-08
    -.221794952936D-09  .100000000000D+01  .233000000000D+04  .000000000000D+00
     .240000000000D+01  .000000000000D+00 -.107102096081D-07  .240000000000D+02
     .374400000000D+06  .400000000000D+01
4  24  9  5 10  0  0.0  .437834765762D-03  .716227077646D-11  .000000000000D+00
     .162000000000D+03 -.618125000000D+02  .461376361035D-08 -.263190473138D+01
    -.323913991451D-05  .298506813124D-02  .530481338501D-05  .515370525742D+04
     .381600000000D+06  .745058059692D-08  .239628216576D+01  .149011611938D-07
     .965686265212D+00  .279187500000D+03 -.299929835416D+01 -.819998441941D-08
    -.393587823084D-09  .100000000000D+01  .233000000000D+04  .000000000000D+00
     .240000000000D+01  .000000000000D+00 -.465661287308D-08  .162000000000D+03
     .374400000000D+06  .400000000000D+01
